{
  "norad_id": 62089,
  "name": "STARLINK-11379 [DTC]",
  "history": [
    {
      "epoch": "2026-04-13T22:32:37.656672Z",
      "apogee_km": 357.5242842190646,
      "perigee_km": 355.2547487830043,
      "latitude_deg": -3.454848393097963e-06,
      "longitude_deg": 10.62158409731498,
      "height_km": 355.2980227151276,
      "semi_major_axis_km": 6734.526516501034,
      "eccentricity": 0.0001685,
      "inclination_deg": 43.0018,
      "raan_deg": 190.9014,
      "arg_perigee_deg": 40.5863,
      "mean_anomaly_deg": 319.513,
      "mean_motion_rev_day": 15.70876928
    },
    {
      "epoch": "2026-04-15T06:35:21.220224Z",
      "apogee_km": 357.53645118033455,
      "perigee_km": 355.34367288893554,
      "latitude_deg": -1.122527543560481e-05,
      "longitude_deg": -119.42529611817615,
      "height_km": 356.6000279109002,
      "semi_major_axis_km": 6734.577062034635,
      "eccentricity": 0.0001628,
      "inclination_deg": 43.0007,
      "raan_deg": 182.8521,
      "arg_perigee_deg": 249.3084,
      "mean_anomaly_deg": 110.7609,
      "mean_motion_rev_day": 15.70859243
    },
    {
      "epoch": "2026-04-16T14:38:06.764928Z",
      "apogee_km": 357.789062954158,
      "perigee_km": 355.0454055591226,
      "latitude_deg": -2.0584490333029948e-05,
      "longitude_deg": 110.5233450846068,
      "height_km": 356.0062008263487,
      "semi_major_axis_km": 6734.5542342566405,
      "eccentricity": 0.0002037,
      "inclination_deg": 43.0027,
      "raan_deg": 174.8066,
      "arg_perigee_deg": 277.7209,
      "mean_anomaly_deg": 82.3427,
      "mean_motion_rev_day": 15.7086723
    },
    {
      "epoch": "2026-04-17T21:09:20.347200Z",
      "apogee_km": 357.4455835415447,
      "perigee_km": 354.40434647690654,
      "latitude_deg": -3.558641571934114e-05,
      "longitude_deg": 3.7977081303444877,
      "height_km": 354.67560011336866,
      "semi_major_axis_km": 6734.061965009225,
      "eccentricity": 0.00022581,
      "inclination_deg": 42.9996,
      "raan_deg": 167.141,
      "arg_perigee_deg": 47.9384,
      "mean_anomaly_deg": 312.1675,
      "mean_motion_rev_day": 15.71039482
    },
    {
      "epoch": "2026-04-18T10:53:20.859360Z",
      "apogee_km": 356.9966034373383,
      "perigee_km": 355.750853642774,
      "latitude_deg": 1.9340595977090274e-05,
      "longitude_deg": 153.7803190336863,
      "height_km": 356.0218263696953,
      "semi_major_axis_km": 6734.510728540056,
      "eccentricity": 9.249e-05,
      "inclination_deg": 43.0003,
      "raan_deg": 163.6897,
      "arg_perigee_deg": 281.48,
      "mean_anomaly_deg": 78.5964,
      "mean_motion_rev_day": 15.70882452
    },
    {
      "epoch": "2026-04-19T12:49:51.828960Z",
      "apogee_km": 357.9597182256475,
      "perigee_km": 355.3319406612545,
      "latitude_deg": -2.7303285917118516e-06,
      "longitude_deg": 117.07045736765284,
      "height_km": 357.09466476434244,
      "semi_major_axis_km": 6734.78282944345,
      "eccentricity": 0.00019509,
      "inclination_deg": 43.0014,
      "raan_deg": 157.1743,
      "arg_perigee_deg": 239.0306,
      "mean_anomaly_deg": 121.037,
      "mean_motion_rev_day": 15.70787252
    },
    {
      "epoch": "2026-04-20T13:14:50.076672Z",
      "apogee_km": 357.1749301525542,
      "perigee_km": 355.6028224319916,
      "latitude_deg": 1.0570953280737944e-05,
      "longitude_deg": 103.69393406756704,
      "height_km": 356.5218678761438,
      "semi_major_axis_km": 6734.525876292272,
      "eccentricity": 0.00011672,
      "inclination_deg": 42.9981,
      "raan_deg": 151.0432,
      "arg_perigee_deg": 242.6503,
      "mean_anomaly_deg": 117.4246,
      "mean_motion_rev_day": 15.70877152
    },
    {
      "epoch": "2026-04-21T09:05:05.426592Z",
      "apogee_km": 357.0693183589465,
      "perigee_km": 355.27004629956264,
      "latitude_deg": 2.286818483373517e-05,
      "longitude_deg": 160.331386030308,
      "height_km": 356.192799165842,
      "semi_major_axis_km": 6734.306682329255,
      "eccentricity": 0.00013359,
      "inclination_deg": 42.9998,
      "raan_deg": 146.0593,
      "arg_perigee_deg": 253.8099,
      "mean_anomaly_deg": 106.2622,
      "mean_motion_rev_day": 15.70953848
    },
    {
      "epoch": "2026-04-22T18:39:25.627680Z",
      "apogee_km": 356.8818826299066,
      "perigee_km": 355.1552451433254,
      "latitude_deg": 4.1264586255186984e-05,
      "longitude_deg": 6.937966461430496,
      "height_km": 355.1378108037851,
      "semi_major_axis_km": 6734.155563886616,
      "eccentricity": 0.0001282,
      "inclination_deg": 43.0006,
      "raan_deg": 137.6288,
      "arg_perigee_deg": 319.1317,
      "mean_anomaly_deg": 40.9455,
      "mean_motion_rev_day": 15.71006728
    },
    {
      "epoch": "2026-04-23T11:26:34.283616Z",
      "apogee_km": 357.2622563821524,
      "perigee_km": 355.3558693906698,
      "latitude_deg": 3.838468024538094e-06,
      "longitude_deg": 110.24619301102014,
      "height_km": 356.00367745965707,
      "semi_major_axis_km": 6734.446062886411,
      "eccentricity": 0.00014154,
      "inclination_deg": 42.9999,
      "raan_deg": 133.4125,
      "arg_perigee_deg": 274.6838,
      "mean_anomaly_deg": 85.3868,
      "mean_motion_rev_day": 15.70905078
    },
    {
      "epoch": "2026-04-24T01:10:35.783328Z",
      "apogee_km": 357.01559767396975,
      "perigee_km": 355.30037274123697,
      "latitude_deg": 6.1294591791308e-05,
      "longitude_deg": -99.77312056065783,
      "height_km": 356.3763819290805,
      "semi_major_axis_km": 6734.294985207603,
      "eccentricity": 0.00012735,
      "inclination_deg": 42.9994,
      "raan_deg": 129.9634,
      "arg_perigee_deg": 238.6357,
      "mean_anomaly_deg": 121.4387,
      "mean_motion_rev_day": 15.70957941
    },
    {
      "epoch": "2026-04-25T16:51:09.749088Z",
      "apogee_km": 356.747992978997,
      "perigee_km": 356.0273988365352,
      "latitude_deg": -6.877015950081696e-06,
      "longitude_deg": 13.490942252636964,
      "height_km": 355.8343667430916,
      "semi_major_axis_km": 6734.524695907766,
      "eccentricity": 5.35e-05,
      "inclination_deg": 43.0021,
      "raan_deg": 119.9985,
      "arg_perigee_deg": 334.4249,
      "mean_anomaly_deg": 25.6592,
      "mean_motion_rev_day": 15.70877565
    },
    {
      "epoch": "2026-04-26T09:38:18.739392Z",
      "apogee_km": 357.84843477614413,
      "perigee_km": 354.8593983277424,
      "latitude_deg": -3.932301068302481e-05,
      "longitude_deg": 116.79837869145875,
      "height_km": 356.4548488174235,
      "semi_major_axis_km": 6734.490916551943,
      "eccentricity": 0.00022192,
      "inclination_deg": 43.0006,
      "raan_deg": 115.7828,
      "arg_perigee_deg": 257.3273,
      "mean_anomaly_deg": 102.7346,
      "mean_motion_rev_day": 15.70889384
    },
    {
      "epoch": "2026-04-27T00:53:54.664800Z",
      "apogee_km": 357.82541825801036,
      "perigee_km": 354.1600314487723,
      "latitude_deg": -2.894114695252902e-06,
      "longitude_deg": -116.5610763806121,
      "height_km": 357.21886916851935,
      "semi_major_axis_km": 6734.129724853391,
      "eccentricity": 0.00027215,
      "inclination_deg": 42.9995,
      "raan_deg": 111.9497,
      "arg_perigee_deg": 217.5102,
      "mean_anomaly_deg": 142.5576,
      "mean_motion_rev_day": 15.7101577
    }
  ]
}